{"type": "FeatureCollection", "features": [ {"type": "Feature", "properties": {"norad_id": 66919, "name": "HULIANWANG DIGUI-109", "group": "last-30-days", "lat": 49.77710356159698, "lon": 158.97218531211269, "alt_km": 876.5672642491636, "timestamp": "2025-12-26T07:29:17.194742+00:00", "meta": {"OBJECT_NAME": "HULIANWANG DIGUI-109", "OBJECT_ID": "2025-285E", "EPOCH": "2025-12-25T22:29:49.778880", "MEAN_MOTION": 14.03728342, "ECCENTRICITY": 0.00079392, "INCLINATION": 50.0077, "RA_OF_ASC_NODE": 63.4703, "ARG_OF_PERICENTER": 336.348, "MEAN_ANOMALY": 23.7059, "EPHEMERIS_TYPE": 0, "CLASSIFICATION_TYPE": "U", "NORAD_CAT_ID": 66919, "ELEMENT_SET_NO": 999, "REV_AT_EPOCH": 276, "BSTAR": 0.00012692692, "MEAN_MOTION_DOT": 4.9e-07, "MEAN_MOTION_DDOT": 0}, "tle": {"line1": "1 66919U 25285E   25359.93738170  .00000049  00000+0  12693-3 0  9991", "line2": "2 66919  50.0077  63.4703 0007939 336.3480  23.7059 14.03728342  2765"}}, "geometry": {"type": "Point", "coordinates": [158.97218531211269, 49.77710356159698]}}, {"type": "Feature", "properties": {"norad_id": 66920, "name": "HULIANWANG DIGUI-110", "group": "last-30-days", "lat": 49.3364690164177, "lon": 164.2607284506063, "alt_km": 876.4300828596724, "timestamp": "2025-12-26T07:29:17.194753+00:00", "meta": {"OBJECT_NAME": "HULIANWANG DIGUI-110", "OBJECT_ID": "2025-285F", "EPOCH": "2025-12-25T22:28:49.437120", "MEAN_MOTION": 14.03684477, "ECCENTRICITY": 0.00056514, "INCLINATION": 50.0122, "RA_OF_ASC_NODE": 63.4743, "ARG_OF_PERICENTER": 333.3263, "MEAN_ANOMALY": 26.735, "EPHEMERIS_TYPE": 0, "CLASSIFICATION_TYPE": "U", "NORAD_CAT_ID": 66920, "ELEMENT_SET_NO": 999, "REV_AT_EPOCH": 276, "BSTAR": 0.00011440624, "MEAN_MOTION_DOT": 2.9e-07, "MEAN_MOTION_DDOT": 0}, "tle": {"line1": "1 66920U 25285F   25359.93668330  .00000029  00000+0  11441-3 0  9991", "line2": "2 66920  50.0122  63.4743 0005651 333.3263  26.7350 14.03684477  2764"}}, "geometry": {"type": "Point", "coordinates": [164.2607284506063, 49.3364690164177]}}, {"type": "Feature", "properties": {"norad_id": 66921, "name": "HULIANWANG DIGUI-111", "group": "last-30-days", "lat": 48.64923085421855, "lon": 169.4665715756953, "alt_km": 877.0981374154144, "timestamp": "2025-12-26T07:29:17.194762+00:00", "meta": {"OBJECT_NAME": "HULIANWANG DIGUI-111", "OBJECT_ID": "2025-285G", "EPOCH": "2025-12-25T22:27:48.971808", "MEAN_MOTION": 14.03634064, "ECCENTRICITY": 0.000673, "INCLINATION": 50.0126, "RA_OF_ASC_NODE": 63.4743, "ARG_OF_PERICENTER": 337.2389, "MEAN_ANOMALY": 22.8216, "EPHEMERIS_TYPE": 0, "CLASSIFICATION_TYPE": "U", "NORAD_CAT_ID": 66921, "ELEMENT_SET_NO": 999, "REV_AT_EPOCH": 276, "BSTAR": 0.0001200085, "MEAN_MOTION_DOT": 3.8e-07, "MEAN_MOTION_DDOT": 0}, "tle": {"line1": "1 66921U 25285G   25359.93598347  .00000038  00000+0  12001-3 0  9995", "line2": "2 66921  50.0126  63.4743 0006730 337.2389  22.8216 14.03634064  2765"}}, "geometry": {"type": "Point", "coordinates": [169.4665715756953, 48.64923085421855]}}, {"type": "Feature", "properties": {"norad_id": 66922, "name": "HULIANWANG DIGUI-112", "group": "last-30-days", "lat": 47.019081026314865, "lon": 177.67761354284966, "alt_km": 876.8033357587965, "timestamp": "2025-12-26T07:29:17.194775+00:00", "meta": {"OBJECT_NAME": "HULIANWANG DIGUI-112", "OBJECT_ID": "2025-285H", "EPOCH": "2025-12-25T22:26:11.707872", "MEAN_MOTION": 14.03664066, "ECCENTRICITY": 0.00065423, "INCLINATION": 50.01, "RA_OF_ASC_NODE": 63.4599, "ARG_OF_PERICENTER": 347.8219, "MEAN_ANOMALY": 12.2526, "EPHEMERIS_TYPE": 0, "CLASSIFICATION_TYPE": "U", "NORAD_CAT_ID": 66922, "ELEMENT_SET_NO": 999, "REV_AT_EPOCH": 276, "BSTAR": 0.00011486537, "MEAN_MOTION_DOT": 3e-07, "MEAN_MOTION_DDOT": 0}, "tle": {"line1": "1 66922U 25285H   25359.93485773  .00000030  00000+0  11487-3 0  9993", "line2": "2 66922  50.0100  63.4599 0006542 347.8219  12.2526 14.03664066  2769"}}, "geometry": {"type": "Point", "coordinates": [177.67761354284966, 47.019081026314865]}}, {"type": "Feature", "properties": {"norad_id": 66923, "name": "HULIANWANG DIGUI-113", "group": "last-30-days", "lat": 44.55569680374243, "lon": -173.81865216168882, "alt_km": 877.1947643280355, "timestamp": "2025-12-26T07:29:17.194787+00:00", "meta": {"OBJECT_NAME": "HULIANWANG DIGUI-113", "OBJECT_ID": "2025-285J", "EPOCH": "2025-12-25T20:41:51.543168", "MEAN_MOTION": 14.03702002, "ECCENTRICITY": 0.00051536, "INCLINATION": 50.0098, "RA_OF_ASC_NODE": 63.7449, "ARG_OF_PERICENTER": 342.102, "MEAN_ANOMALY": 17.9702, "EPHEMERIS_TYPE": 0, "CLASSIFICATION_TYPE": "U", "NORAD_CAT_ID": 66923, "ELEMENT_SET_NO": 999, "REV_AT_EPOCH": 275, "BSTAR": 0.00012574219, "MEAN_MOTION_DOT": 4.7e-07, "MEAN_MOTION_DDOT": 0}, "tle": {"line1": "1 66923U 25285J   25359.86240212  .00000047  00000+0  12574-3 0  9999", "line2": "2 66923  50.0098  63.7449 0005153 342.1020  17.9702 14.03702002  2758"}}, "geometry": {"type": "Point", "coordinates": [-173.81865216168882, 44.55569680374243]}}, {"type": "Feature", "properties": {"norad_id": 66924, "name": "CZ-8A R/B", "group": "last-30-days", "lat": 23.7982338645313, "lon": -143.3463477699255, "alt_km": 702.1124078206631, "timestamp": "2025-12-26T07:29:17.194797+00:00", "meta": {"OBJECT_NAME": "CZ-8A R/B", "OBJECT_ID": "2025-285K", "EPOCH": "2025-12-25T10:40:55.363008", "MEAN_MOTION": 14.30506687, "ECCENTRICITY": 0.0119239, "INCLINATION": 50.0085, "RA_OF_ASC_NODE": 62.0719, "ARG_OF_PERICENTER": 151.535, "MEAN_ANOMALY": 209.2146, "EPHEMERIS_TYPE": 0, "CLASSIFICATION_TYPE": "U", "NORAD_CAT_ID": 66924, "ELEMENT_SET_NO": 999, "REV_AT_EPOCH": 274, "BSTAR": 6.6135e-05, "MEAN_MOTION_DOT": 2.1e-07, "MEAN_MOTION_DDOT": 0}, "tle": {"line1": "1 66924U 25285K   25359.44508522  .00000021  00000+0  66135-4 0  9990", "line2": "2 66924  50.0085  62.0719 0119239 151.5350 209.2146 14.30506687  2744"}}, "geometry": {"type": "Point", "coordinates": [-143.3463477699255, 23.7982338645313]}}, {"type": "Feature", "properties": {"norad_id": 66925, "name": "STARLINK-35945", "group": "last-30-days", "lat": -41.227948522732945, "lon": -58.22149758214659, "alt_km": 398.25976383516536, "timestamp": "2025-12-26T07:29:17.194807+00:00", "meta": {"OBJECT_NAME": "STARLINK-35945", "OBJECT_ID": "2025-286A", "EPOCH": "2025-12-25T22:00:01.999584", "MEAN_MOTION": 15.59848661, "ECCENTRICITY": 0.00014992, "INCLINATION": 53.1595, "RA_OF_ASC_NODE": 344.7678, "ARG_OF_PERICENTER": 98.74, "MEAN_ANOMALY": 145.9371, "EPHEMERIS_TYPE": 0, "CLASSIFICATION_TYPE": "U", "NORAD_CAT_ID": 66925, "ELEMENT_SET_NO": 999, "REV_AT_EPOCH": 410, "BSTAR": -0.026886014, "MEAN_MOTION_DOT": -0.01940313, "MEAN_MOTION_DDOT": 0}, "tle": {"line1": "1 66925U 25286A   25359.91668981 -.01940313  00000+0 -26886-1 0  9996", "line2": "2 66925  53.1595 344.7678 0001499  98.7400 145.9371 15.59848661  4106"}}, "geometry": {"type": "Point", "coordinates": [-58.22149758214659, -41.227948522732945]}}, {"type": "Feature", "properties": {"norad_id": 66926, "name": "STARLINK-35942", "group": "last-30-days", "lat": -51.13871050279874, "lon": -85.61429380325704, "alt_km": 404.21678547465854, "timestamp": "2025-12-26T07:29:17.194817+00:00", "meta": {"OBJECT_NAME": "STARLINK-35942", "OBJECT_ID": "2025-286B", "EPOCH": "2025-12-25T22:00:01.999584", "MEAN_MOTION": 15.57978735, "ECCENTRICITY": 0.00015419, "INCLINATION": 53.1591, "RA_OF_ASC_NODE": 344.8052, "ARG_OF_PERICENTER": 91.234, "MEAN_ANOMALY": 134.8344, "EPHEMERIS_TYPE": 0, "CLASSIFICATION_TYPE": "U", "NORAD_CAT_ID": 66926, "ELEMENT_SET_NO": 999, "REV_AT_EPOCH": 410, "BSTAR": -0.029286591, "MEAN_MOTION_DOT": -0.01964212, "MEAN_MOTION_DDOT": 0}, "tle": {"line1": "1 66926U 25286B   25359.91668981 -.01964212  00000+0 -29287-1 0  9999", "line2": "2 66926  53.1591 344.8052 0001541  91.2340 134.8344 15.57978735  4100"}}, "geometry": {"type": "Point", "coordinates": [-85.61429380325704, -51.13871050279874]}}, {"type": "Feature", "properties": {"norad_id": 66927, "name": "STARLINK-35943", "group": "last-30-days", "lat": -50.542901356013324, "lon": -82.7393627351775, "alt_km": 404.1935376011679, "timestamp": "2025-12-26T07:29:17.194827+00:00", "meta": {"OBJECT_NAME": "STARLINK-35943", "OBJECT_ID": "2025-286C", "EPOCH": "2025-12-25T22:00:01.999584", "MEAN_MOTION": 15.57983826, "ECCENTRICITY": 0.00015092, "INCLINATION": 53.1598, "RA_OF_ASC_NODE": 344.8013, "ARG_OF_PERICENTER": 95.6123, "MEAN_ANOMALY": 132.3709, "EPHEMERIS_TYPE": 0, "CLASSIFICATION_TYPE": "U", "NORAD_CAT_ID": 66927, "ELEMENT_SET_NO": 999, "REV_AT_EPOCH": 410, "BSTAR": -0.029431161, "MEAN_MOTION_DOT": -0.01973028, "MEAN_MOTION_DDOT": 0}, "tle": {"line1": "1 66927U 25286C   25359.91668981 -.01973028  00000+0 -29431-1 0  9996", "line2": "2 66927  53.1598 344.8013 0001509  95.6123 132.3709 15.57983826  4101"}}, "geometry": {"type": "Point", "coordinates": [-82.7393627351775, -50.542901356013324]}}, {"type": "Feature", "properties": {"norad_id": 66928, "name": "STARLINK-35944", "group": "last-30-days", "lat": -51.66319554882443, "lon": -88.56048433108317, "alt_km": 404.22821760810257, "timestamp": "2025-12-26T07:29:17.194837+00:00", "meta": {"OBJECT_NAME": "STARLINK-35944", "OBJECT_ID": "2025-286D", "EPOCH": "2025-12-25T22:00:01.999584", "MEAN_MOTION": 15.57983357, "ECCENTRICITY": 0.00015192, "INCLINATION": 53.1595, "RA_OF_ASC_NODE": 344.8085, "ARG_OF_PERICENTER": 93.7828, "MEAN_ANOMALY": 130.3644, "EPHEMERIS_TYPE": 0, "CLASSIFICATION_TYPE": "U", "NORAD_CAT_ID": 66928, "ELEMENT_SET_NO": 999, "REV_AT_EPOCH": 410, "BSTAR": -0.029365962, "MEAN_MOTION_DOT": -0.0196917, "MEAN_MOTION_DDOT": 0}, "tle": {"line1": "1 66928U 25286D   25359.91668981 -.01969170  00000+0 -29366-1 0  9997", "line2": "2 66928  53.1595 344.8085 0001519  93.7828 130.3644 15.57983357  4105"}}, "geometry": {"type": "Point", "coordinates": [-88.56048433108317, -51.66319554882443]}}]}